GSAT0205 (GALILEO 9)
1 40889U 15045A   25357.26155998  .00000073  00000+0  00000+0 0  9999
2 40889  55.0001 226.4673 0006222  42.5636 317.5856  1.70473104 64013